OBJECT_NAME,OBJECT_ID,EPOCH,MEAN_MOTION,ECCENTRICITY,INCLINATION,RA_OF_ASC_NODE,ARG_OF_PERICENTER,MEAN_ANOMALY,EPHEMERIS_TYPE,CLASSIFICATION_TYPE,NORAD_CAT_ID,ELEMENT_SET_NO,REV_AT_EPOCH,BSTAR,MEAN_MOTION_DOT,MEAN_MOTION_DDOT
IRIDIUM 156,2018-061H,2026-07-15T02:16:14.481120,14.34217624,.0002096,86.3936,45.0551,92.5926,267.5509,0,U,43576,999,41737,.11879E-4,.53E-6,0
IRIDIUM 164,2018-061J,2026-07-15T01:48:50.593248,14.34218278,.0002325,86.3938,45.1040,89.3076,270.8386,0,U,43577,999,41741,.44658E-4,.145E-5,0
IRIDIUM 159,2018-061K,2026-07-15T02:43:38.459712,14.34217458,.0002132,86.3935,45.0244,85.3310,274.8129,0,U,43578,999,41738,.11126E-4,.51E-6,0
IRIDIUM 180,2019-002A,2026-07-14T21:41:30.962112,14.34218389,.0002185,86.3991,342.0108,90.7939,269.3507,0,U,43922,999,39296,.31961E-4,.109E-5,0
IRIDIUM 176,2019-002B,2026-07-14T21:21:29.398176,14.72248840,.0002333,86.6111,341.9561,89.9278,270.2207,0,U,43923,999,40332,.57473E-4,.387E-5,0
IRIDIUM 168,2019-002C,2026-07-14T21:32:22.909632,14.34216547,.0002104,86.3989,342.0916,91.5494,268.5943,0,U,43924,999,39294,-.2567E-4,-.52E-6,0
IRIDIUM 173,2019-002D,2026-07-14T21:14:07.016352,14.34216472,.0002025,86.3987,341.9850,91.6799,268.4629,0,U,43925,999,39292,-.34184E-4,-.76E-6,0
IRIDIUM 169,2019-002E,2026-07-15T00:07:08.035104,14.38613205,.0001881,86.4221,13.5595,103.1969,256.9439,0,U,43926,999,39422,.51372E-5,.36E-6,0
IRIDIUM 172,2019-002F,2026-07-14T22:45:27.021024,14.34217451,.0002179,86.3988,341.9658,90.2194,269.9251,0,U,43927,999,39294,-.18103E-5,.15E-6,0
IRIDIUM 175,2019-002G,2026-07-15T05:01:49.314720,14.43627267,.0005307,86.4512,278.8081,115.2226,244.9525,0,U,43928,999,40302,.4702E-4,.18E-5,0
IRIDIUM 171,2019-002H,2026-07-14T22:18:02.971584,14.34217615,.0002222,86.3998,342.2830,94.9456,265.1993,0,U,43929,999,39293,.54782E-5,.35E-6,0
IRIDIUM 170,2019-002J,2026-07-14T21:30:22.487904,14.72249436,.0002264,86.6110,341.9558,86.4132,273.7344,0,U,43930,999,40333,.57899E-4,.39E-5,0
IRIDIUM 167,2019-002K,2026-07-14T22:08:54.949344,14.34217754,.0002286,86.3991,341.9991,98.7123,261.4332,0,U,43931,999,39293,.70323E-5,.39E-6,0
IRIDIUM 181,2023-068S,2026-07-15T02:46:21.283104,14.43312270,.0002407,86.4474,45.1112,83.8027,276.3449,0,U,56726,999,16646,.45628E-4,.174E-5,0
IRIDIUM 177,2023-068T,2026-07-14T20:08:06.997632,14.80021590,.0002347,86.1988,315.6632,95.8884,264.2605,0,U,56727,999,17045,.67857E-4,.54E-5,0
IRIDIUM 174,2023-068U,2026-07-14T22:50:19.940352,14.72258071,.0001989,86.6119,342.0827,87.4290,272.7155,0,U,56728,999,17010,.5919E-4,.398E-5,0
IRIDIUM 178,2023-068V,2026-07-14T21:29:37.838976,14.80026130,.0002314,86.6535,13.7786,90.8281,269.3206,0,U,56729,999,17046,.20605E-4,.182E-5,0
IRIDIUM 179,2023-068W,2026-07-15T00:36:38.348640,14.80033495,.0002321,86.6767,22.7863,93.3552,266.7935,0,U,56730,999,17048,.14651E-4,.137E-5,0
